{
  "norad_id": 67494,
  "name": "STARLINK-36396",
  "history": [
    {
      "epoch": "2026-03-28T19:16:21.023040",
      "apogee_km": 483.9137894735686,
      "perigee_km": 481.9528955696769,
      "latitude_deg": -37.484318517601395,
      "longitude_deg": -73.50997440004721,
      "semi_major_axis_km": 6861.0703425216225,
      "eccentricity": 0.0001429,
      "inclination_deg": 43.0002,
      "raan_deg": 206.5947,
      "arg_perigee_deg": 277.8989,
      "mean_anomaly_deg": 82.1701,
      "mean_motion_rev_day": 15.27618658
    }
  ]
}